STARLINK-1523
1 46028U 20055B   26061.25002314  .00065829  00000+0  40183-2 0  9991
2 46028  53.0660 159.9930 0001894  89.2448 122.9946 15.09713981  5333
